0 FENGYUN 1C DEB
1 32128U 99025CRW 13282.75773297  .00001816  00000-0  81254-3 0  4415
2 32128 099.3928 271.3247 0429641 333.4066 024.6050 13.84392022323813
0 FENGYUN 1C DEB
1 32128U 99025CRW 13284.20311180  .00001850  00000-0  82489-3 0  4426
2 32128 099.3933 272.7759 0430584 329.4364 028.2522 13.84398705324017
0 FENGYUN 1C DEB
1 32128U 99025CRW 13286.22664342  .00001877  00000-0  83597-3 0  4432
2 32128 099.3959 274.8116 0430846 324.0029 033.2839 13.84407293324295
0 FENGYUN 1C DEB
1 32128U 99025CRW 13288.75605254  .00001935  00000-0  85893-3 0  4446
2 32128 099.3960 277.3509 0431483 317.3251 039.5251 13.84418806324649
0 FENGYUN 1C DEB
1 32128U 99025CRW 13289.18966221  .00002002  00000-0  88598-3 0  4450
2 32128 099.3947 277.7848 0432028 316.2475 040.5760 13.84422910324701
0 FENGYUN 1C DEB
1 32128U 99025CRW 13290.77955220  .00002052  00000-0  90987-3 0  4487
2 32128 099.3952 279.3841 0431309 312.0411 044.4847 13.84430908324922
0 FENGYUN 1C DEB
1 32128U 99025CRW 13293.16439869  .00002095  00000-0  92593-3 0  4492
2 32128 099.3927 281.7685 0431996 305.6519 050.5465 13.84442568325252
0 FENGYUN 1C DEB
1 32128U 99025CRW 13295.18789166  .00002177  00000-0  95726-3 0  4508
2 32128 099.3914 283.7966 0433145 300.2032 055.7712 13.84454285325533
0 FENGYUN 1C DEB
1 32128U 99025CRW 13295.76601568  .00002200  00000-0  97619-3 0  4512
2 32128 099.3955 284.3840 0430463 298.5914 057.2811 13.84457486325616
